KUIPER-00616            
1 69775U 26151N   26195.59405736  .00007690  00000+0  21012-3 0  9991
2 69775  51.8773 183.2093 0003134 119.7585 240.3715 15.38376477  1925
KUIPER-00617            
1 69776U 26151P   26195.59802726  .00007799  00000+0  21715-3 0  9992
2 69776  51.8786 183.2317 0004048 132.6320 227.5009 15.37766846  1920
KUIPER-00619            
1 69777U 26151Q   26195.59207041  .00012228  00000+0  32627-3 0  9999
2 69777  51.8788 183.1898 0001788  64.3633 295.7539 15.38526505  1924
KUIPER-00621            
1 69778U 26151R   26195.52893341  .00011006  00000+0  29675-3 0  9999
2 69778  51.8778 183.5215 0001876 104.1155 256.0041 15.38316505  1915
KUIPER-00622            
1 69779U 26151S   26195.34426128  .00009930  00000+0  28048-3 0  9991
2 69779  51.8732 184.5333 0007033 146.8683 213.2746 15.36973527  1882
KUIPER-00623            
1 69780U 26151T   26195.40548424  .00010890  00000+0  30224-3 0  9990
2 69780  51.8772 184.1931 0005116 133.5870 226.5542 15.37422381  1899
KUIPER-00626            
1 69781U 26151U   26195.22261522 -.00025123  00000+0 -70856-3 0  9994
2 69781  51.8723 185.2117 0009759 162.9766 197.1549 15.35447170  1869
KUIPER-00627            
1 69782U 26151V   26195.35447929  .00008503  00000+0  25341-3 0  9996
2 69782  51.8692 184.5970 0010829 164.3900 195.7422 15.35461120  1887
KUIPER-00629            
1 69783U 26151W   26195.60481486  .00005714  00000+0  16612-3 0  9993
2 69783  51.8735 183.2795 0007348 145.2448 214.9019 15.36952610  1925
KUIPER-00631            
1 69784U 26151X   26195.54161985  .00009349  00000+0  26678-3 0  9997
2 69784  51.8705 183.6046 0007877 152.9876 207.1522 15.36726137  1918
KUIPER-00634            
1 69785U 26151Y   26195.40354515  .00008094  00000+0  22528-3 0  9992
2 69785  51.8762 184.1808 0003810 135.1951 224.9344 15.37723016  1894
KUIPER-00639            
1 69786U 26151Z   26195.54598176 -.00000714  00000+0 -91262-5 0  9997
2 69786  51.8677 183.6301 0009928 160.4705 199.6664 15.35847516  1912
KUIPER-00641            
1 69787U 26151AA  26195.55042044  .00028729  00000+0  83775-3 0  9999
2 69787  51.8670 183.6581 0009005 162.6396 197.4900 15.35095988  1919
KUIPER-00644            
1 69788U 26151AB  26195.34796297  .00011396  00000+0  32455-3 0  9994
2 69788  51.8733 184.5570 0008424 155.0141 205.1254 15.36547957  1880
KUIPER-00646            
1 69789U 26151AC  26195.54558484 -.00003939  00000+0 -99821-4 0  9998
2 69789  51.8698 183.6275 0009707 163.5259 196.6045 15.35927525  1910
KUIPER-00647            
1 69790U 26151AD  26195.48379357 -.00023867  00000+0 -66913-3 0  9990
2 69790  51.8667 183.9553 0012217 162.4994 197.6415 15.35569778  1907
KUIPER-00662            
1 69791U 26151AE  26195.47742373 -.00129583  00000+0 -36493-2 0  9993
2 69791  51.8719 183.9237 0008206 150.8768 209.2677 15.36321024  1909
LINK                    
1 69792U 26152A   26195.54818790  .00126451  00000+0  10950-2 0  9999
2 69792  20.5927 332.3809 0024505 346.3344  13.6438 15.66971156  1756
2026-152B               
1 69793U 26152B   26194.72720642  .00034944  00000+0  33008-3 0  9992
2 69793  20.5989 338.8282 0022426 333.1353  26.7932 15.64685266  1627
ISS OBJECT YJ           
1 69794U 98067YJ  26195.34102699  .00020936  00000+0  37359-3 0  9991
2 69794  51.6305 165.6410 0007783 308.5136  51.5154 15.49993951  1862
ISS OBJECT YK           
1 69795U 98067YK  26195.33763600  .00037028  00000+0  63853-3 0  9994
2 69795  51.6303 165.6181 0006750 317.3259  42.7205 15.50646300  1867
ISS OBJECT YL           
1 69796U 98067YL  26195.33846217  .00028499  00000+0  49739-3 0  9990
2 69796  51.6304 165.6239 0008831 309.9161  50.1051 15.50424076  1859
ISS OBJECT YM           
1 69797U 98067YM  26195.33823396  .00029384  00000+0  51166-3 0  9995
2 69797  51.6305 165.6220 0009596 301.0475  58.9572 15.50464851  1849
ISS OBJECT YN           
1 69798U 98067YN  26195.33880222  .00019283  00000+0  34127-3 0  9992
2 69798  51.6307 165.6254 0009215 312.1813  47.8393 15.50274267  1866
ISS OBJECT YP           
1 69799U 98067YP  26195.33815739  .00028327  00000+0  49363-3 0  9991
2 69799  51.6304 165.6216 0009766 301.1564  58.8467 15.50461808  1856
QIANFAN-201             
1 69800U 26153A   26195.83859174  .00000047  00000+0  62988-5 0  9996
2 69800  89.0162 359.0192 0087059  88.1509 272.9668 14.53448371  1528
QIANFAN-202             
1 69801U 26153B   26195.68909779 -.01702379  00000+0 -89821+0 0  9996
2 69801  88.9917 359.1084 0007462 159.6817 200.4670 14.17988245  1474
QIANFAN-203             
1 69802U 26153C   26195.76013316  .00000054  00000+0  17420-4 0  9998
2 69802  88.9921 359.1003 0007640 182.3673 177.7484 14.23362712  1484
QIANFAN-204             
1 69803U 26153D   26195.83029330  .00000166  00000+0  67969-4 0  9997
2 69803  88.9922 359.0922 0007170 184.7731 175.3393 14.22390486  1496
QIANFAN-205             
1 69804U 26153E   26195.83143595  .00000105  00000+0  40681-4 0  9993
2 69804  88.9921 359.0922 0007378 183.1410 176.9736 14.22264102  1496
